[{"OBJECT_NAME":"GEESAT-1 04","OBJECT_ID":"2022-058D","EPOCH":"2026-03-09T22:25:22.027008","MEAN_MOTION":14.810114,"ECCENTRICITY":0.00100038,"INCLINATION":50.0041,"RA_OF_ASC_NODE":301.1948,"ARG_OF_PERICENTER":127.9517,"MEAN_ANOMALY":232.2326,"EPHEMERIS_TYPE":0,"CLASSIFICATION_TYPE":"U","NORAD_CAT_ID":52788,"ELEMENT_SET_NO":999,"REV_AT_EPOCH":20521,"BSTAR":0.00036323444,"MEAN_MOTION_DOT":2.624e-5,"MEAN_MOTION_DDOT":0},{"OBJECT_NAME":"KUIPER-00113","OBJECT_ID":"2025-228B","EPOCH":"2026-03-09T22:29:23.137440","MEAN_MOTION":14.79886464,"ECCENTRICITY":5.385e-5,"INCLINATION":51.8999,"RA_OF_ASC_NODE":354.4999,"ARG_OF_PERICENTER":69.622,"MEAN_ANOMALY":290.48,"EPHEMERIS_TYPE":0,"CLASSIFICATION_TYPE":"U","NORAD_CAT_ID":65948,"ELEMENT_SET_NO":999,"REV_AT_EPOCH":2333,"BSTAR":-5.789971e-6,"MEAN_MOTION_DOT":-2.65e-6,"MEAN_MOTION_DDOT":0}]
